#aV2011  3  5  0  0   .00000000      96 DD+AD WGS84 FIT  NGA
## 1625 518400.00000000   900.00000000 55625  .0000000000000
+   32     1  2  3  4  5  6  7  8  9 10 11 12 13 14 15 16 17
+         18 19 20 21 22 23 24 25 26 27 28 29 30 31 32  0  0
+          0  0  0  0  0  0  0  0  0  0  0  0  0  0  0  0  0
+          0  0  0  0  0  0  0  0  0  0  0  0  0  0  0  0  0
+          0  0  0  0  0  0  0  0  0  0  0  0  0  0  0  0  0
++         0  0  0  0  0  0  0  0  0  0  0  0  0  0  0  0  0
++         0  0  0  0  0  0  0  0  0  0  0  0  0  0  0  0  0
++         0  0  0  0  0  0  0  0  0  0  0  0  0  0  0  0  0
++         0  0  0  0  0  0  0  0  0  0  0  0  0  0  0  0  0
++         0  0  0  0  0  0  0  0  0  0  0  0  0  0  0  0  0
%c cc cc ccc ccc cccc cccc cccc cccc ccccc ccccc ccccc ccccc
%c cc cc ccc ccc cccc cccc cccc cccc ccccc ccccc ccccc ccccc
%f  0.0000000  0.000000000  0.00000000000  0.000000000000000
%f  0.0000000  0.000000000  0.00000000000  0.000000000000000
%i    0    0    0    0      0      0      0      0         0
%i    0    0    0    0      0      0      0      0         0
/*      NGA, ST. LOUIS,MO.                                  
/*   EPHEMERIS COMPUTED FROM  3 DAYS OF DATA                
/* CCCCCCCCCCCCCCCCCCCCCCCCCCCCCCCCCCCCCCCCCCCCCCCCCCCCCCCCC
/* CCCCCCCCCCCCCCCCCCCCCCCCCCCCCCCCCCCCCCCCCCCCCCCCCCCCCCCCC
*  2011  3  5 11  0   .00000000                                                 
P  1  -6207.838175  25732.769585   -891.619518   -213.095316                    
V  1  -2887.666464    268.998644  31972.507578      -.028613                    
P  2 -10561.920277 -21818.520861  11424.288782    323.582129                    
V  2  12111.886016   8101.110616  26245.366963       .019770                    
P  3   6828.019103  14601.510636 -21524.496055    684.231181                    
V  3 -24556.770872   9982.968744   -714.360563       .051427                    
P  4   1378.284524 -18237.510562  18932.144749     52.253238                    
V  4  18738.952084  16148.208122  14386.273147       .103608                    
P  5  -3484.561099 -22843.989259 -13020.318892   -124.275099                    
V  5   6638.827137 -15367.203230  25325.977481      -.058792                    
P  6   1441.332297  15860.034146 -21074.718408     68.441582                    
V  6 -26101.486155   7876.715450   4316.506797     -1.358235                    
P  7  17300.505893  -1918.646595 -20115.904542      4.916378                    
V  7  17260.422374  18729.061601  12858.806549       .008693                    
P  8   9651.607425 -10847.270016 -22187.821565      7.495015                    
V  8  18536.209781  21213.321054  -2832.536075       .001007                    
P  9 -21127.462584 -14749.242806   5917.310181     65.694289                    
V  9  -4469.961843  -7200.946051 -31051.750341       .023579                    
P 10   7844.814530 -25143.204150    706.880641    -67.965940                    
V 10   3041.779105   2095.138174  31731.919564      -.010373                    
P 11  24039.465093  11152.182891   3287.128486   -132.000572                    
V 11   1509.504606   6383.779624 -29477.731348      -.029701                    
P 12 -12848.706845  -8618.493029  21642.286131    -21.713093                    
V 12   7791.247661 -26207.588343  -5654.266298       .029559                    
P 13  26031.207271  -5364.482553   -800.310862    280.209969                    
V 13   1157.546411   1638.219513  32350.115666      -.014136                    
P 14 -15874.099153  14182.530975  15954.035064    135.501950                    
V 14 -19855.596311   2652.843297 -22460.912762       .025038                    
P 15 -20641.718639  -5776.195931 -15775.544256   -146.036081                    
V 15  18667.892656  -7501.941542 -21504.219873       .032960                    
P 16    571.185219  23977.869706 -11047.434471   -155.344535                    
V 16  -6283.423001  12892.039879  27861.196844      -.028732                    
P 17  16489.194456 -14574.903440  14836.080361    183.661657                    
V 17  18696.276650  -2224.548651 -23387.726601       .002975                    
P 18 -15655.234013  15059.567256 -14728.788738    124.817641                    
V 18   2493.216742 -19522.224372 -22530.084570       .020333                    
P 19  17248.153567   9639.459301 -17904.210582   -117.154503                    
V 19 -21997.889474   5465.961423 -17912.343278      -.037409                    
P 20  15390.847346   3255.106608  21251.028003     48.674191                    
V 20  -6054.265266  26765.921420    348.421035       .000412                    
P 21 -17534.097426   2834.274495 -19530.127494   -128.247181                    
V 21 -17066.137237 -19092.914680  11694.223815      -.026269                    
P 22 -11112.193904  23375.872404  -5561.280034    152.312363                    
V 22  -1536.460104  -8070.720403 -30063.222995      -.004845                    
P 23  24277.372561   1657.361874  11034.997154    322.100930                    
V 23 -12944.908527   5448.708576  27323.356816      -.024358                    
P 24  21132.397117  13303.137216   9496.907180    370.696474                    
V 24   5997.309389  10627.382660 -28137.002512       .031898                    
P 25 -16073.637240   7715.825899  19669.762084    -70.185897                    
V 25   4956.776936 -24535.661677  13677.911410      -.010181                    
P 26  -8572.650248 -13164.741061 -22064.429806   -137.067568                    
V 26  25990.846588  -5103.319540  -6838.755660      -.098897                    
P 27 -20490.532628 -17123.584864   1643.317763    242.608377                    
V 27    356.210778  -2257.121419 -31911.922280       .036435                    
P 28  12712.046247 -21326.751069  -8537.609033     23.441511                    
V 28  -1003.384674  11862.166067 -29622.973178       .022675                    
P 29 -26096.256442   4018.557740   2748.299932    190.092141                    
V 29   2682.768239  -3488.186236  31547.174873       .028921                    
P 30  -2633.109610  26107.946657  -4397.102423    326.718597                    
V 30  -3834.443375   4358.943994  31088.857314       .028940                    
P 31   1108.954765  18985.380187  18659.271639     49.207676                    
V 31 -17241.113641 -15710.378022  17406.225610       .047625                    
P 32  10785.597874  13238.623015  20728.492119   -208.807843                    
V 32  -9405.513409  23808.015146 -10059.265576      -.076934                    
EOF
